[{"OBJECT_NAME":"STARLINK-31125","OBJECT_ID":"2023-211M","EPOCH":"2026-03-09T02:26:12.497856","MEAN_MOTION":15.27579104,"ECCENTRICITY":6.876e-5,"INCLINATION":43.0021,"RA_OF_ASC_NODE":88.6818,"ARG_OF_PERICENTER":254.9458,"MEAN_ANOMALY":105.1318,"EPHEMERIS_TYPE":0,"CLASSIFICATION_TYPE":"U","NORAD_CAT_ID":58678,"ELEMENT_SET_NO":999,"REV_AT_EPOCH":12354,"BSTAR":6.663399e-6,"MEAN_MOTION_DOT":-7.8e-7,"MEAN_MOTION_DDOT":0},{"OBJECT_NAME":"OBJECT BD","OBJECT_ID":"2025-313BD","EPOCH":"2026-03-09T15:06:44.992224","MEAN_MOTION":15.3000236,"ECCENTRICITY":0.00072867,"INCLINATION":97.397,"RA_OF_ASC_NODE":145.285,"ARG_OF_PERICENTER":333.4514,"MEAN_ANOMALY":26.6352,"EPHEMERIS_TYPE":0,"CLASSIFICATION_TYPE":"U","NORAD_CAT_ID":67299,"ELEMENT_SET_NO":999,"REV_AT_EPOCH":1083,"BSTAR":0.0027633805,"MEAN_MOTION_DOT":0.0008101,"MEAN_MOTION_DDOT":0}]
